{
    "links": {
        "self": "http://www.neowsapp.com/rest/v1/neo/3893946?api_key=iIulBulltgU6a56xZRHN4H3l9WmuAYTsLGpBGhQ2"
    },
    "id": "3893946",
    "neo_reference_id": "3893946",
    "name": "(2019 WP6)",
    "designation": "2019 WP6",
    "nasa_jpl_url": "http://ssd.jpl.nasa.gov/sbdb.cgi?sstr=3893946",
    "absolute_magnitude_h": 26.1,
    "estimated_diameter": {
        "kilometers": {
            "estimated_diameter_min": 0.0160160338,
            "estimated_diameter_max": 0.0358129403
        },
        "meters": {
            "estimated_diameter_min": 16.0160337979,
            "estimated_diameter_max": 35.8129403019
        },
        "miles": {
            "estimated_diameter_min": 0.0099518989,
            "estimated_diameter_max": 0.0222531225
        },
        "feet": {
            "estimated_diameter_min": 52.5460443254,
            "estimated_diameter_max": 117.4965270602
        }
    },
    "is_potentially_hazardous_asteroid": false,
    "close_approach_data": [
        {
            "close_approach_date": "2019-12-14",
            "close_approach_date_full": "2019-Dec-14 05:00",
            "epoch_date_close_approach": 1576299600000,
            "relative_velocity": {
                "kilometers_per_second": "4.4355715446",
                "kilometers_per_hour": "15968.0575605492",
                "miles_per_hour": "9921.929988109"
            },
            "miss_distance": {
                "astronomical": "0.0163326478",
                "lunar": "6.3533999942",
                "kilometers": "2443329.322340186",
                "miles": "1518214.4403631268"
            },
            "orbiting_body": "Earth"
        },
        {
            "close_approach_date": "2075-09-16",
            "close_approach_date_full": "2075-Sep-16 08:22",
            "epoch_date_close_approach": 3335847720000,
            "relative_velocity": {
                "kilometers_per_second": "5.5904797717",
                "kilometers_per_hour": "20125.7271780112",
                "miles_per_hour": "12505.3442012481"
            },
            "miss_distance": {
                "astronomical": "0.3629419412",
                "lunar": "141.1844151268",
                "kilometers": "54295341.337185244",
                "miles": "33737560.6754506072"
            },
            "orbiting_body": "Earth"
        },
        {
            "close_approach_date": "2076-03-16",
            "close_approach_date_full": "2076-Mar-16 09:11",
            "epoch_date_close_approach": 3351575460000,
            "relative_velocity": {
                "kilometers_per_second": "12.9972450925",
                "kilometers_per_hour": "46790.0823329356",
                "miles_per_hour": "29073.5375473732"
            },
            "miss_distance": {
                "astronomical": "0.2920304296",
                "lunar": "113.5998371144",
                "kilometers": "43687130.243344952",
                "miles": "27145923.9599942576"
            },
            "orbiting_body": "Earth"
        }
    ],
    "orbital_data": {
        "orbit_id": "1",
        "orbit_determination_date": "2019-12-04 16:12:19",
        "first_observation_date": "2019-11-30",
        "last_observation_date": "2019-12-04",
        "data_arc_in_days": 4,
        "observations_used": 18,
        "orbit_uncertainty": "8",
        "minimum_orbit_intersection": ".0063852",
        "jupiter_tisserand_invariant": "5.181",
        "epoch_osculation": "2458819.5",
        "eccentricity": ".2278199217237669",
        "semi_major_axis": "1.228133700922587",
        "inclination": "3.955414309837188",
        "ascending_node_longitude": "80.46182794345206",
        "orbital_period": "497.1264837559814",
        "perihelion_distance": ".9483403773120833",
        "perihelion_argument": "30.58148106842155",
        "aphelion_distance": "1.507927024533091",
        "perihelion_time": "2458857.598803624632",
        "mean_anomaly": "332.4103025024112",
        "mean_motion": ".7241617812836318",
        "equinox": "J2000",
        "orbit_class": {
            "orbit_class_type": "APO",
            "orbit_class_description": "Near-Earth asteroid orbits which cross the Earth’s orbit similar to that of 1862 Apollo",
            "orbit_class_range": "a (semi-major axis) > 1.0 AU; q (perihelion) < 1.017 AU"
        }
    },
    "is_sentry_object": false
}